{"type":"FeatureCollection","features":[{"id":"7d8d3e302624e47c01b2807cb8df7f6e","type":"Feature","properties":{},"geometry":{"type":"Polygon","coordinates":[[[-112.2132902,33.9409066],[-112.2079766,33.9082188],[-112.2512353,33.9076489],[-112.2512353,33.8603363],[-112.4304498,33.8586257],[-112.7332604,34.0312216],[-112.8218377,33.9965027],[-112.7971185,33.9424041],[-112.7559197,33.8477912],[-112.7531732,33.3674221],[-112.5169671,33.3639813],[-112.521087,33.2802126],[-112.150169,33.2783283],[-112.1089703,33.2806244],[-112.1117169,32.9850746],[-111.8782574,32.9827707],[-111.8755108,32.8744198],[-111.7264056,32.8743075],[-111.7264056,32.7236641],[-111.615169,32.7230864],[-111.6186022,32.9071726],[-111.4551806,32.9077491],[-111.4538073,32.9757465],[-111.2876391,32.9763225],[-111.2842059,33.1115843],[-111.398189,33.1133097],[-111.495006,33.2500836],[-111.2539935,33.2558257],[-111.2533068,33.3252755],[-111.3171649,33.3258493],[-111.3165312,33.4014625],[-111.4318876,33.4026089],[-111.4318876,33.4232426],[-111.4675932,33.4232426],[-111.4675932,33.47366],[-111.6076689,33.4725145],[-111.6117888,33.7698401],[-111.7765837,33.7698401],[-111.777957,33.8280411],[-111.7971831,33.8280411],[-111.830142,33.8280411],[-111.830142,33.8998819],[-112.0663481,33.8998819],[-112.0663481,33.9431852],[-112.2132902,33.9409066]]]}}]}